[{"OBJECT_NAME":"STARLINK-36148","OBJECT_ID":"2025-293C","EPOCH":"2026-03-09T11:28:19.264800","MEAN_MOTION":14.9828441,"ECCENTRICITY":0.00029224,"INCLINATION":70.0007,"RA_OF_ASC_NODE":95.0917,"ARG_OF_PERICENTER":268.3794,"MEAN_ANOMALY":91.703,"EPHEMERIS_TYPE":0,"CLASSIFICATION_TYPE":"U","NORAD_CAT_ID":67005,"ELEMENT_SET_NO":999,"REV_AT_EPOCH":1485,"BSTAR":-0.00086095425,"MEAN_MOTION_DOT":-0.00010338,"MEAN_MOTION_DDOT":0},{"OBJECT_NAME":"MEGSAT-1","OBJECT_ID":"2000-057B","EPOCH":"2026-03-09T22:47:17.292480","MEAN_MOTION":15.04862037,"ECCENTRICITY":0.0038022,"INCLINATION":64.552,"RA_OF_ASC_NODE":26.971,"ARG_OF_PERICENTER":294.4401,"MEAN_ANOMALY":65.2751,"EPHEMERIS_TYPE":0,"CLASSIFICATION_TYPE":"U","NORAD_CAT_ID":26546,"ELEMENT_SET_NO":999,"REV_AT_EPOCH":38272,"BSTAR":0.00040228449,"MEAN_MOTION_DOT":5.624e-5,"MEAN_MOTION_DDOT":0}]
